******** Week 935 almanac for PRN-37 ********
ID:                         37
Health:                     000
Eccentricity:               6.0038582888E-004
Time of Applicability(s):       0.0000
Orbital Inclination(rad):   0.9467213390
Rate of Right Ascen(r/s):  -6.9370746713E-009
SQRT(A)  (m 1/2):           5282.633396
Right Ascen at Week(rad):   2.4823467131E+000
Argument of Perigee(rad):  -0.222480917
Mean Anom(rad):             1.9461117461E+000
Af0(s):                    -9.0909912251E-004
Af1(s/s):                  -1.4846790464E-011
week:                        935

******** Week 935 almanac for PRN-38 ********
ID:                         38
Health:                     000
Eccentricity:               2.3718456505E-003
Time of Applicability(s):       0.0000
Orbital Inclination(rad):   1.0014489756
Rate of Right Ascen(r/s):  -2.4622454195E-009
SQRT(A)  (m 1/2):           6493.798523
Right Ascen at Week(rad):  -4.2283582757E-001
Argument of Perigee(rad):  -2.813604758
Mean Anom(rad):            -9.9729995709E-001
Af0(s):                     1.2156588491E-004
Af1(s/s):                   2.4682478283E-012
week:                        935

******** Week 935 almanac for PRN-39 ********
ID:                         39
Health:                     000
Eccentricity:               3.2666958869E-003
Time of Applicability(s):       0.0000
Orbital Inclination(rad):   0.9618128063
Rate of Right Ascen(r/s):  -1.7572160522E-009
SQRT(A)  (m 1/2):           6493.958006
Right Ascen at Week(rad):   1.6658646741E+000
Argument of Perigee(rad):  -2.939223361
Mean Anom(rad):            -2.9943372596E+000
Af0(s):                    -5.8796722442E-006
Af1(s/s):                  -3.7658764995E-013
week:                        935

******** Week 935 almanac for PRN-40 ********
ID:                         40
Health:                     000
Eccentricity:               3.3743148670E-003
Time of Applicability(s):       0.0000
Orbital Inclination(rad):   0.9844430299
Rate of Right Ascen(r/s):  -1.6711410383E-009
SQRT(A)  (m 1/2):           6493.806112
Right Ascen at Week(rad):  -2.4570669825E+000
Argument of Perigee(rad):  -3.018937885
Mean Anom(rad):             1.2453638656E+000
Af0(s):                    -4.6308035962E-005
Af1(s/s):                  -1.4725998199E-012
week:                        935

******** Week 935 almanac for PRN-41 ********
ID:                         41
Health:                     000
Eccentricity:               1.4299574541E-003
Time of Applicability(s):       0.0000
Orbital Inclination(rad):   0.9736454480
Rate of Right Ascen(r/s):  -6.6452768024E-009
SQRT(A)  (m 1/2):           5282.628372
Right Ascen at Week(rad):   3.8551926702E-001
Argument of Perigee(rad):  -1.515456522
Mean Anom(rad):            -2.1109981908E-001
Af0(s):                    -8.7231269572E-004
Af1(s/s):                  -1.0178524690E-012
week:                        935

******** Week 935 almanac for PRN-42 ********
ID:                         42
Health:                     000
Eccentricity:               1.1932505295E-003
Time of Applicability(s):       0.0000
Orbital Inclination(rad):   0.9736759133
Rate of Right Ascen(r/s):  -6.7249229772E-009
SQRT(A)  (m 1/2):           5282.633715
Right Ascen at Week(rad):   3.8609427136E-001
Argument of Perigee(rad):  -1.231627022
Mean Anom(rad):             1.0719036077E+000
Af0(s):                    -4.8795214388E-004
Af1(s/s):                   6.9206862463E-012
week:                        935

******** Week 935 almanac for PRN-43 ********
ID:                         43
Health:                     000
Eccentricity:               4.1515519843E-004
Time of Applicability(s):       0.0000
Orbital Inclination(rad):   0.9540078560
Rate of Right Ascen(r/s):  -6.9635043436E-009
SQRT(A)  (m 1/2):           5282.622915
Right Ascen at Week(rad):  -1.7344526973E+000
Argument of Perigee(rad):   0.357150797
Mean Anom(rad):             8.2110139741E-001
Af0(s):                     5.0717382692E-005
Af1(s/s):                   1.5383250229E-012
week:                        935

******** Week 935 almanac for PRN-44 ********
ID:                         44
Health:                     000
Eccentricity:               6.2344700564E-004
Time of Applicability(s):       0.0000
Orbital Inclination(rad):   0.9544664062
Rate of Right Ascen(r/s):  -6.8577856543E-009
SQRT(A)  (m 1/2):           5282.626080
Right Ascen at Week(rad):  -1.7341074369E+000
Argument of Perigee(rad):   0.423679529
Mean Anom(rad):             2.2799510605E+000
Af0(s):                     3.1101016793E-004
Af1(s/s):                   1.1490364216E-011
week:                        935

******** Week 935 almanac for PRN-45 ********
ID:                         45
Health:                     000
Eccentricity:               6.0510134790E-004
Time of Applicability(s):       0.0000
Orbital Inclination(rad):   0.9506526753
Rate of Right Ascen(r/s):  -6.9170738382E-009
SQRT(A)  (m 1/2):           5282.609335
Right Ascen at Week(rad):   2.4862692543E+000
Argument of Perigee(rad):   0.373994084
Mean Anom(rad):            -1.0160640934E+000
Af0(s):                    -5.1492592320E-005
Af1(s/s):                  -3.3679725675E-012
week:                        935

******** Week 935 almanac for PRN-46 ********
ID:                         46
Health:                     000
Eccentricity:               9.2477141879E-004
Time of Applicability(s):       0.0000
Orbital Inclination(rad):   0.9506801021
Rate of Right Ascen(r/s):  -6.9042161597E-009
SQRT(A)  (m 1/2):           5282.615608
Right Ascen at Week(rad):   2.4868073376E+000
Argument of Perigee(rad):   0.321670045
Mean Anom(rad):             5.7221156629E-001
Af0(s):                    -1.0439474136E-004
Af1(s/s):                  -3.0686564401E-012
week:                        935

******** Week 935 almanac for PRN-59 ********
ID:                         59
Health:                     000
Eccentricity:               1.2606976088E-004
Time of Applicability(s):       0.0000
Orbital Inclination(rad):   0.0703446294
Rate of Right Ascen(r/s):  -8.0614072185E-009
SQRT(A)  (m 1/2):           6493.473717
Right Ascen at Week(rad):   2.8286824625E+000
Argument of Perigee(rad):  -1.712160133
Mean Anom(rad):             1.3271468906E+000
Af0(s):                    -7.6275318861E-007
Af1(s/s):                  -5.4178883602E-014
week:                        935

******** Week 935 almanac for PRN-60 ********
ID:                         60
Health:                     000
Eccentricity:               3.5246857442E-004
Time of Applicability(s):       0.0000
Orbital Inclination(rad):   0.0701671365
Rate of Right Ascen(r/s):  -3.7805146165E-009
SQRT(A)  (m 1/2):           6493.435617
Right Ascen at Week(rad):  -2.7175847829E+000
Argument of Perigee(rad):  -0.470233839
Mean Anom(rad):            -1.6973090888E+000
Af0(s):                    -2.4365726858E-007
Af1(s/s):                   2.1316282073E-014
week:                        935

